[{"OBJECT_NAME":"IRIDE-MS2-HEO-9","OBJECT_ID":"2025-135BK","EPOCH":"2026-03-09T21:52:15.799008","MEAN_MOTION":14.94083208,"ECCENTRICITY":0.00030266,"INCLINATION":97.762,"RA_OF_ASC_NODE":184.6607,"ARG_OF_PERICENTER":333.8916,"MEAN_ANOMALY":26.2151,"EPHEMERIS_TYPE":0,"CLASSIFICATION_TYPE":"U","NORAD_CAT_ID":64585,"ELEMENT_SET_NO":999,"REV_AT_EPOCH":3908,"BSTAR":0.00032181213,"MEAN_MOTION_DOT":3.381e-5,"MEAN_MOTION_DDOT":0},{"OBJECT_NAME":"COSMOS 2251 DEB","OBJECT_ID":"1993-036AJA","EPOCH":"2026-02-11T08:52:27.880032","MEAN_MOTION":15.05018922,"ECCENTRICITY":0.00700444,"INCLINATION":73.9325,"RA_OF_ASC_NODE":48.614,"ARG_OF_PERICENTER":290.1885,"MEAN_ANOMALY":69.178,"EPHEMERIS_TYPE":0,"CLASSIFICATION_TYPE":"U","NORAD_CAT_ID":35071,"ELEMENT_SET_NO":999,"REV_AT_EPOCH":68448,"BSTAR":0.0010407924,"MEAN_MOTION_DOT":0.00015602,"MEAN_MOTION_DDOT":0}]
